CTC2_L_00326016-03
1 32675U 23433JW  26070.40846065  .00000000  00000+0  00000-0 0  9995
2 32675  40.0000 180.0000 0000000   0.0000   0.0000 13.56072486    11
CTC2_L_00326016-04
1 32676U 26333FW  26070.40846065  .00000000  00000+0  00000-0 0  9998
2 32676  40.0000 180.0000 0000000   0.0000  90.0000 13.56072486    11
CTC2_L_00326017-01
1 32677U 26010UB  26070.40846065  .00000000  00000+0  00000-0 0  9991
2 32677  40.0000 192.0000 0000000   0.0000 192.0000 13.56072486    18
CTC2_L_00326017-02
1 32678U 26655FA  26070.40846065  .00000000  00000+0  00000-0 0  9997
2 32678  40.0000 192.0000 0000000   0.0000 282.0000 13.56072486    19
CTC2_L_00326017-03
1 32679U 25629PB  26070.40846065  .00000000  00000+0  00000-0 0  9998
2 32679  40.0000 192.0000 0000000   0.0000  12.0000 13.56072486    11
CTC2_L_00326017-04
1 32680U 25630PC  26070.40846065  .00000000  00000+0  00000-0 0  9992
2 32680  40.0000 192.0000 0000000   0.0000 102.0000 13.56072486    13
CTC2_L_00326018-01
1 32681U 26292PF  26070.40846065  .00000000  00000+0  00000-0 0  9998
2 32681  40.0000 204.0000 0000000   0.0000 204.0000 13.56072486    11
CTC2_L_00326018-02
1 32682U 25647PP  26070.40846065  .00000000  00000+0  00000-0 0  9992
2 32682  40.0000 204.0000 0000000   0.0000 294.0000 13.56072486    11
CTC2_L_00326018-03
1 32683U 23088XQ  26070.40846065  .00000000  00000+0  00000-0 0  9990
2 32683  40.0000 204.0000 0000000   0.0000  24.0000 13.56072486    13
CTC2_L_00326018-04
1 32684U 26602AV  26070.40846065  .00000000  00000+0  00000-0 0  9996
2 32684  40.0000 204.0000 0000000   0.0000 114.0000 13.56072486    14
CTC2_L_00326019-01
1 32685U 24512HC  26070.40846065  .00000000  00000+0  00000-0 0  9995
2 32685  40.0000 216.0000 0000000   0.0000 216.0000 13.56072486    11
CTC2_L_00326019-02
1 32686U 23663LJ  26070.40846065  .00000000  00000+0  00000-0 0  9992
2 32686  40.0000 216.0000 0000000   0.0000 306.0000 13.56072486    12
CTC2_L_00326019-03
1 32687U 26958YE  26070.40846065  .00000000  00000+0  00000-0 0  9993
2 32687  40.0000 216.0000 0000000   0.0000  36.0000 13.56072486    13
CTC2_L_00326019-04
1 32688U 23659WY  26070.40846065  .00000000  00000+0  00000-0 0  9999
2 32688  40.0000 216.0000 0000000   0.0000 126.0000 13.56072486    14
CTC2_L_00326020-01
1 32689U 22168WG  26070.40846065  .00000000  00000+0  00000-0 0  9994
2 32689  40.0000 228.0000 0000000   0.0000 228.0000 13.56072486    11
CTC2_L_00326020-02
1 32690U 26004PD  26070.40846065  .00000000  00000+0  00000-0 0  9999
2 32690  40.0000 228.0000 0000000   0.0000 318.0000 13.56072486    13
CTC2_L_00326020-03
1 32691U 22389SX  26070.40846065  .00000000  00000+0  00000-0 0  9992
2 32691  40.0000 228.0000 0000000   0.0000  48.0000 13.56072486    14
CTC2_L_00326020-04
1 32692U 22132FO  26070.40846065  .00000000  00000+0  00000-0 0  9999
2 32692  40.0000 228.0000 0000000   0.0000 138.0000 13.56072486    15
CTC2_L_00326021-01
1 32693U 24174YE  26070.40846065  .00000000  00000+0  00000-0 0  9998
2 32693  40.0000 240.0000 0000000   0.0000 240.0000 13.56072486    14
CTC2_L_00326021-02
1 32694U 24662LF  26070.40846065  .00000000  00000+0  00000-0 0  9991
2 32694  40.0000 240.0000 0000000   0.0000 330.0000 13.56072486    15
CTC2_L_00326021-03
1 32695U 26066NB  26070.40846065  .00000000  00000+0  00000-0 0  9992
2 32695  40.0000 240.0000 0000000   0.0000  60.0000 13.56072486    16
CTC2_L_00326021-04
1 32696U 24092XC  26070.40846065  .00000000  00000+0  00000-0 0  9990
2 32696  40.0000 240.0000 0000000   0.0000 150.0000 13.56072486    17
CTC2_L_00326022-01
1 32697U 26166VE  26070.40846065  .00000000  00000+0  00000-0 0  9995
2 32697  40.0000 252.0000 0000000   0.0000 252.0000 13.56072486    14
CTC2_L_00326022-02
1 32698U 24588NR  26070.40846065  .00000000  00000+0  00000-0 0  9992
2 32698  40.0000 252.0000 0000000   0.0000 342.0000 13.56072486    15
CTC2_L_00326022-03
1 32699U 23832EL  26070.40846065  .00000000  00000+0  00000-0 0  9994
2 32699  40.0000 252.0000 0000000   0.0000  72.0000 13.56072486    16
CTC2_L_00326022-04
1 32700U 25761DB  26070.40846065  .00000000  00000+0  00000-0 0  9990
2 32700  40.0000 252.0000 0000000   0.0000 162.0000 13.56072486    19
CTC2_L_00326023-01
1 32701U 23469QG  26070.40846065  .00000000  00000+0  00000-0 0  9994
2 32701  40.0000 264.0000 0000000   0.0000 264.0000 13.56072486    16
CTC2_L_00326023-02
1 32702U 22870WF  26070.40846065  .00000000  00000+0  00000-0 0  9990
2 32702  40.0000 264.0000 0000000   0.0000 354.0000 13.56072486    17
CTC2_L_00326023-03
1 32703U 23131EM  26070.40846065  .00000000  00000+0  00000-0 0  9992
2 32703  40.0000 264.0000 0000000   0.0000  84.0000 13.56072486    18
CTC2_L_00326023-04
1 32704U 26742BN  26070.40846065  .00000000  00000+0  00000-0 0  9994
2 32704  40.0000 264.0000 0000000   0.0000 174.0000 13.56072486    19
CTC2_L_00326024-01
1 32705U 22544ZI  26070.40846065  .00000000  00000+0  00000-0 0  9991
2 32705  40.0000 276.0000 0000000   0.0000 276.0000 13.56072486    16
CTC2_L_00326024-02
1 32706U 22786MW  26070.40846065  .00000000  00000+0  00000-0 0  9990
2 32706  40.0000 276.0000 0000000   0.0000   6.0000 13.56072486    18
CTC2_L_00326024-03
1 32707U 22124HO  26070.40846065  .00000000  00000+0  00000-0 0  9997
2 32707  40.0000 276.0000 0000000   0.0000  96.0000 13.56072486    18
CTC2_L_00326024-04
1 32708U 26620ME  26070.40846065  .00000000  00000+0  00000-0 0  9993
2 32708  40.0000 276.0000 0000000   0.0000 186.0000 13.56072486    19
CTC2_L_00326025-01
1 32709U 26851HY  26070.40846065  .00000000  00000+0  00000-0 0  9990
2 32709  40.0000 288.0000 0000000   0.0000 288.0000 13.56072486    16
CTC2_L_00326025-02
1 32710U 24545GA  26070.40846065  .00000000  00000+0  00000-0 0  9990
2 32710  40.0000 288.0000 0000000   0.0000  18.0000 13.56072486    19
CTC2_L_00326025-03
1 32711U 26119UM  26070.40846065  .00000000  00000+0  00000-0 0  9990
2 32711  40.0000 288.0000 0000000   0.0000 108.0000 13.56072486    10
CTC2_L_00326025-04
1 32712U 26034YT  26070.40846065  .00000000  00000+0  00000-0 0  9997
2 32712  40.0000 288.0000 0000000   0.0000 198.0000 13.56072486    10
CTC2_L_00326026-01
1 32713U 23974MV  26070.40846065  .00000000  00000+0  00000-0 0  9998
2 32713  40.0000 300.0000 0000000   0.0000 300.0000 13.56072486    11
CTC2_L_00326026-02
1 32714U 26953KF  26070.40846065  .00000000  00000+0  00000-0 0  9999
2 32714  40.0000 300.0000 0000000   0.0000  30.0000 13.56072486    12
CTC2_L_00326026-03
1 32715U 25692IE  26070.40846065  .00000000  00000+0  00000-0 0  9999
2 32715  40.0000 300.0000 0000000   0.0000 120.0000 13.56072486    13
CTC2_L_00326026-04
1 32716U 23588FL  26070.40846065  .00000000  00000+0  00000-0 0  9992
2 32716  40.0000 300.0000 0000000   0.0000 210.0000 13.56072486    14
CTC2_L_00326027-01
1 32717U 26129IN  26070.40846065  .00000000  00000+0  00000-0 0  9997
2 32717  40.0000 312.0000 0000000   0.0000 312.0000 13.56072486    11
CTC2_L_00326027-02
1 32718U 22363XA  26070.40846065  .00000000  00000+0  00000-0 0  9994
2 32718  40.0000 312.0000 0000000   0.0000  42.0000 13.56072486    12
CTC2_L_00326027-03
1 32719U 26842AP  26070.40846065  .00000000  00000+0  00000-0 0  9991
2 32719  40.0000 312.0000 0000000   0.0000 132.0000 13.56072486    13
CTC2_L_00326027-04
1 32720U 23379VP  26070.40846065  .00000000  00000+0  00000-0 0  9995
2 32720  40.0000 312.0000 0000000   0.0000 222.0000 13.56072486    15
CTC2_L_00326028-01
1 32721U 22243WC  26070.40846065  .00000000  00000+0  00000-0 0  9995
2 32721  40.0000 324.0000 0000000   0.0000 324.0000 13.56072486    12
CTC2_L_00326028-02
1 32722U 24883GM  26070.40846065  .00000000  00000+0  00000-0 0  9998
2 32722  40.0000 324.0000 0000000   0.0000  54.0000 13.56072486    13
CTC2_L_00326028-03
1 32723U 25135NO  26070.40846065  .00000000  00000+0  00000-0 0  9990
2 32723  40.0000 324.0000 0000000   0.0000 144.0000 13.56072486    14
CTC2_L_00326028-04
1 32724U 25586YO  26070.40846065  .00000000  00000+0  00000-0 0  9991
2 32724  40.0000 324.0000 0000000   0.0000 234.0000 13.56072486    15
CTC2_L_00326029-01
1 32725U 22121HZ  26070.40846065  .00000000  00000+0  00000-0 0  9994
2 32725  40.0000 336.0000 0000000   0.0000 336.0000 13.56072486    12
CTC2_L_00326029-02
1 32726U 25234NR  26070.40846065  .00000000  00000+0  00000-0 0  9993
2 32726  40.0000 336.0000 0000000   0.0000  66.0000 13.56072486    13
CTC2_L_00326029-03
1 32727U 23610AE  26070.40846065  .00000000  00000+0  00000-0 0  9990
2 32727  40.0000 336.0000 0000000   0.0000 156.0000 13.56072486    14
CTC2_L_00326029-04
1 32728U 26230JG  26070.40846065  .00000000  00000+0  00000-0 0  9992
2 32728  40.0000 336.0000 0000000   0.0000 246.0000 13.56072486    15
CTC2_L_00326030-01
1 32729U 25628J   26070.40846065  .00000000  00000+0  00000-0 0  9993
2 32729  40.0000 348.0000 0000000   0.0000 348.0000 13.56072486    12
CTC2_L_00326030-02
1 32730U 24862NA  26070.40846065  .00000000  00000+0  00000-0 0  9994
2 32730  40.0000 348.0000 0000000   0.0000  78.0000 13.56072486    14
CTC2_L_00326030-03
1 32731U 24795SC  26070.40846065  .00000000  00000+0  00000-0 0  9990
2 32731  40.0000 348.0000 0000000   0.0000 168.0000 13.56072486    15
CTC2_L_00326030-04
1 32732U 25821V   26070.40846065  .00000000  00000+0  00000-0 0  9992
2 32732  40.0000 348.0000 0000000   0.0000 258.0000 13.56072486    16
